[
  {
    "OBJECT_NAME": "STARLINK-32805",
    "OBJECT_ID": "25014F",
    "EPOCH": "2025-11-10T16:34:57.795744",
    "MEAN_MOTION": 15.27608172,
    "ECCENTRICITY": 0.0002149,
    "INCLINATION": 43.0039,
    "RA_OF_ASC_NODE": 106.8154,
    "ARG_OF_PERICENTER": 282.4208,
    "MEAN_ANOMALY": 77.6404,
    "EPHEMERIS_TYPE": 0,
    "CLASSIFICATION_TYPE": "U",
    "NORAD_CAT_ID": 62740,
    "ELEMENT_SET_NO": 999,
    "REV_AT_EPOCH": 4505,
    "BSTAR": 0.0011604,
    "MEAN_MOTION_DOT": 0.00031836,
    "MEAN_MOTION_DDOT": 0.0,
    "TLE_LINE1": "1 62740U 25014F   25314.69094671  .00031836  00000+0  11604-2 0  9992",
    "TLE_LINE2": "2 62740  43.0039 106.8154 0002149 282.4208  77.6404 15.27608172 45058",
    "COMMENT": "Grouped by shell and plane from TLE"
  },
  {
    "OBJECT_NAME": "STARLINK-32770",
    "OBJECT_ID": "25014G",
    "EPOCH": "2025-11-11T02:29:17.462976",
    "MEAN_MOTION": 15.27610032,
    "ECCENTRICITY": 0.0002899,
    "INCLINATION": 43.0022,
    "RA_OF_ASC_NODE": 103.8931,
    "ARG_OF_PERICENTER": 275.2731,
    "MEAN_ANOMALY": 84.779,
    "EPHEMERIS_TYPE": 0,
    "CLASSIFICATION_TYPE": "U",
    "NORAD_CAT_ID": 62741,
    "ELEMENT_SET_NO": 999,
    "REV_AT_EPOCH": 4512,
    "BSTAR": 0.0013226,
    "MEAN_MOTION_DOT": 0.00036348,
    "MEAN_MOTION_DDOT": 0.0,
    "TLE_LINE1": "1 62741U 25014G   25315.10367434  .00036348  00000+0  13226-2 0  9995",
    "TLE_LINE2": "2 62741  43.0022 103.8931 0002899 275.2731  84.7790 15.27610032 45127",
    "COMMENT": "Grouped by shell and plane from TLE"
  },
  {
    "OBJECT_NAME": "STARLINK-32775",
    "OBJECT_ID": "25014H",
    "EPOCH": "2025-11-11T02:45:56.692800",
    "MEAN_MOTION": 15.27604906,
    "ECCENTRICITY": 7.8e-05,
    "INCLINATION": 42.9977,
    "RA_OF_ASC_NODE": 103.9727,
    "ARG_OF_PERICENTER": 283.0027,
    "MEAN_ANOMALY": 77.0737,
    "EPHEMERIS_TYPE": 0,
    "CLASSIFICATION_TYPE": "U",
    "NORAD_CAT_ID": 62742,
    "ELEMENT_SET_NO": 999,
    "REV_AT_EPOCH": 4512,
    "BSTAR": 0.0012006,
    "MEAN_MOTION_DOT": 0.00032947,
    "MEAN_MOTION_DDOT": 0.0,
    "TLE_LINE1": "1 62742U 25014H   25315.11523950  .00032947  00000+0  12006-2 0  9990",
    "TLE_LINE2": "2 62742  42.9977 103.9727 0000780 283.0027  77.0737 15.27604906 45120",
    "COMMENT": "Grouped by shell and plane from TLE"
  },
  {
    "OBJECT_NAME": "STARLINK-32758",
    "OBJECT_ID": "25014K",
    "EPOCH": "2025-11-11T02:45:15.472224",
    "MEAN_MOTION": 15.27596524,
    "ECCENTRICITY": 0.000118,
    "INCLINATION": 42.997,
    "RA_OF_ASC_NODE": 107.434,
    "ARG_OF_PERICENTER": 292.1464,
    "MEAN_ANOMALY": 67.9262,
    "EPHEMERIS_TYPE": 0,
    "CLASSIFICATION_TYPE": "U",
    "NORAD_CAT_ID": 62744,
    "ELEMENT_SET_NO": 999,
    "REV_AT_EPOCH": 4508,
    "BSTAR": 0.0012291000000000001,
    "MEAN_MOTION_DOT": 0.00033731,
    "MEAN_MOTION_DDOT": 0.0,
    "TLE_LINE1": "1 62744U 25014K   25315.11476241  .00033731  00000+0  12291-2 0  9990",
    "TLE_LINE2": "2 62744  42.9970 107.4340 0001180 292.1464  67.9262 15.27596524 45088",
    "COMMENT": "Grouped by shell and plane from TLE"
  },
  {
    "OBJECT_NAME": "STARLINK-32746",
    "OBJECT_ID": "25014L",
    "EPOCH": "2025-11-10T19:48:36.427968",
    "MEAN_MOTION": 15.27610447,
    "ECCENTRICITY": 0.0001876,
    "INCLINATION": 43.0031,
    "RA_OF_ASC_NODE": 105.2346,
    "ARG_OF_PERICENTER": 272.2966,
    "MEAN_ANOMALY": 87.7671,
    "EPHEMERIS_TYPE": 0,
    "CLASSIFICATION_TYPE": "U",
    "NORAD_CAT_ID": 62745,
    "ELEMENT_SET_NO": 999,
    "REV_AT_EPOCH": 4508,
    "BSTAR": 0.0007134000000000001,
    "MEAN_MOTION_DOT": 0.00019439,
    "MEAN_MOTION_DDOT": 0.0,
    "TLE_LINE1": "1 62745U 25014L   25314.82542162  .00019439  00000+0  71340-3 0  9994",
    "TLE_LINE2": "2 62745  43.0031 105.2346 0001876 272.2966  87.7671 15.27610447 45084",
    "COMMENT": "Grouped by shell and plane from TLE"
  },
  {
    "OBJECT_NAME": "STARLINK-32780",
    "OBJECT_ID": "25014M",
    "EPOCH": "2025-11-11T03:32:13.224192",
    "MEAN_MOTION": 15.27600066,
    "ECCENTRICITY": 0.000132,
    "INCLINATION": 43.0008,
    "RA_OF_ASC_NODE": 104.2145,
    "ARG_OF_PERICENTER": 271.4788,
    "MEAN_ANOMALY": 88.5912,
    "EPHEMERIS_TYPE": 0,
    "CLASSIFICATION_TYPE": "U",
    "NORAD_CAT_ID": 62746,
    "ELEMENT_SET_NO": 999,
    "REV_AT_EPOCH": 4512,
    "BSTAR": 0.0011418,
    "MEAN_MOTION_DOT": 0.00031309,
    "MEAN_MOTION_DDOT": 0.0,
    "TLE_LINE1": "1 62746U 25014M   25315.14737528  .00031309  00000+0  11418-2 0  9992",
    "TLE_LINE2": "2 62746  43.0008 104.2145 0001320 271.4788  88.5912 15.27600066 45120",
    "COMMENT": "Grouped by shell and plane from TLE"
  },
  {
    "OBJECT_NAME": "STARLINK-32765",
    "OBJECT_ID": "25014N",
    "EPOCH": "2025-11-10T17:35:48.248448",
    "MEAN_MOTION": 15.27591644,
    "ECCENTRICITY": 0.0001319,
    "INCLINATION": 43.0018,
    "RA_OF_ASC_NODE": 106.2684,
    "ARG_OF_PERICENTER": 271.7743,
    "MEAN_ANOMALY": 88.2958,
    "EPHEMERIS_TYPE": 0,
    "CLASSIFICATION_TYPE": "U",
    "NORAD_CAT_ID": 62747,
    "ELEMENT_SET_NO": 999,
    "REV_AT_EPOCH": 4506,
    "BSTAR": 0.0010439,
    "MEAN_MOTION_DOT": 0.00028586,
    "MEAN_MOTION_DDOT": 0.0,
    "TLE_LINE1": "1 62747U 25014N   25314.73319732  .00028586  00000+0  10439-2 0  9995",
    "TLE_LINE2": "2 62747  43.0018 106.2684 0001319 271.7743  88.2958 15.27591644 45065",
    "COMMENT": "Grouped by shell and plane from TLE"
  },
  {
    "OBJECT_NAME": "STARLINK-32761",
    "OBJECT_ID": "25014Q",
    "EPOCH": "2025-11-10T17:09:13.661280",
    "MEAN_MOTION": 15.27635612,
    "ECCENTRICITY": 0.0002119,
    "INCLINATION": 42.9956,
    "RA_OF_ASC_NODE": 109.5858,
    "ARG_OF_PERICENTER": 271.6429,
    "MEAN_ANOMALY": 88.418,
    "EPHEMERIS_TYPE": 0,
    "CLASSIFICATION_TYPE": "U",
    "NORAD_CAT_ID": 62749,
    "ELEMENT_SET_NO": 999,
    "REV_AT_EPOCH": 4502,
    "BSTAR": 0.0011926,
    "MEAN_MOTION_DOT": 0.00032758,
    "MEAN_MOTION_DDOT": 0.0,
    "TLE_LINE1": "1 62749U 25014Q   25314.71474145  .00032758  00000+0  11926-2 0  9993",
    "TLE_LINE2": "2 62749  42.9956 109.5858 0002119 271.6429  88.4180 15.27635612 45023",
    "COMMENT": "Grouped by shell and plane from TLE"
  },
  {
    "OBJECT_NAME": "STARLINK-32763",
    "OBJECT_ID": "25014R",
    "EPOCH": "2025-11-10T10:44:01.906656",
    "MEAN_MOTION": 15.27598377,
    "ECCENTRICITY": 0.0001064,
    "INCLINATION": 42.9992,
    "RA_OF_ASC_NODE": 107.5576,
    "ARG_OF_PERICENTER": 276.0367,
    "MEAN_ANOMALY": 84.0363,
    "EPHEMERIS_TYPE": 0,
    "CLASSIFICATION_TYPE": "U",
    "NORAD_CAT_ID": 62750,
    "ELEMENT_SET_NO": 999,
    "REV_AT_EPOCH": 4502,
    "BSTAR": 0.0011344,
    "MEAN_MOTION_DOT": 0.00031102,
    "MEAN_MOTION_DDOT": 0.0,
    "TLE_LINE1": "1 62750U 25014R   25314.44724429  .00031102  00000+0  11344-2 0  9994",
    "TLE_LINE2": "2 62750  42.9992 107.5576 0001064 276.0367  84.0363 15.27598377 45029",
    "COMMENT": "Grouped by shell and plane from TLE"
  },
  {
    "OBJECT_NAME": "STARLINK-32759",
    "OBJECT_ID": "25014S",
    "EPOCH": "2025-11-10T17:55:28.015392",
    "MEAN_MOTION": 15.27612014,
    "ECCENTRICITY": 9.5e-05,
    "INCLINATION": 43.0018,
    "RA_OF_ASC_NODE": 109.8353,
    "ARG_OF_PERICENTER": 266.9969,
    "MEAN_ANOMALY": 93.0774,
    "EPHEMERIS_TYPE": 0,
    "CLASSIFICATION_TYPE": "U",
    "NORAD_CAT_ID": 62751,
    "ELEMENT_SET_NO": 999,
    "REV_AT_EPOCH": 4502,
    "BSTAR": 0.0017224999999999999,
    "MEAN_MOTION_DOT": 0.00047491,
    "MEAN_MOTION_DDOT": 0.0,
    "TLE_LINE1": "1 62751U 25014S   25314.74685203  .00047491  00000+0  17225-2 0  9996",
    "TLE_LINE2": "2 62751  43.0018 109.8353 0000950 266.9969  93.0774 15.27612014 45029",
    "COMMENT": "Grouped by shell and plane from TLE"
  },
  {
    "OBJECT_NAME": "STARLINK-32756",
    "OBJECT_ID": "25014T",
    "EPOCH": "2025-11-10T16:36:48.618432",
    "MEAN_MOTION": 15.2760732,
    "ECCENTRICITY": 0.000178,
    "INCLINATION": 43.0028,
    "RA_OF_ASC_NODE": 106.8172,
    "ARG_OF_PERICENTER": 278.376,
    "MEAN_ANOMALY": 81.689,
    "EPHEMERIS_TYPE": 0,
    "CLASSIFICATION_TYPE": "U",
    "NORAD_CAT_ID": 62752,
    "ELEMENT_SET_NO": 999,
    "REV_AT_EPOCH": 4505,
    "BSTAR": 0.001505,
    "MEAN_MOTION_DOT": 0.0004142,
    "MEAN_MOTION_DDOT": 0.0,
    "TLE_LINE1": "1 62752U 25014T   25314.69222938  .00041420  00000+0  15050-2 0  9993",
    "TLE_LINE2": "2 62752  43.0028 106.8172 0001780 278.3760  81.6890 15.27607320 45054",
    "COMMENT": "Grouped by shell and plane from TLE"
  },
  {
    "OBJECT_NAME": "STARLINK-32751",
    "OBJECT_ID": "25014U",
    "EPOCH": "2025-11-11T03:26:39.075648",
    "MEAN_MOTION": 15.2761496,
    "ECCENTRICITY": 0.0001577,
    "INCLINATION": 43.0029,
    "RA_OF_ASC_NODE": 104.1866,
    "ARG_OF_PERICENTER": 282.2061,
    "MEAN_ANOMALY": 77.8614,
    "EPHEMERIS_TYPE": 0,
    "CLASSIFICATION_TYPE": "U",
    "NORAD_CAT_ID": 62753,
    "ELEMENT_SET_NO": 999,
    "REV_AT_EPOCH": 4512,
    "BSTAR": 0.0016118,
    "MEAN_MOTION_DOT": 0.00044405,
    "MEAN_MOTION_DDOT": 0.0,
    "TLE_LINE1": "1 62753U 25014U   25315.14350782  .00044405  00000+0  16118-2 0  9996",
    "TLE_LINE2": "2 62753  43.0029 104.1866 0001577 282.2061  77.8614 15.27614960 45126",
    "COMMENT": "Grouped by shell and plane from TLE"
  },
  {
    "OBJECT_NAME": "STARLINK-32740",
    "OBJECT_ID": "25014V",
    "EPOCH": "2025-11-10T10:27:22.840128",
    "MEAN_MOTION": 15.27614872,
    "ECCENTRICITY": 0.0002459,
    "INCLINATION": 43.0007,
    "RA_OF_ASC_NODE": 107.475,
    "ARG_OF_PERICENTER": 283.1582,
    "MEAN_ANOMALY": 76.8995,
    "EPHEMERIS_TYPE": 0,
    "CLASSIFICATION_TYPE": "U",
    "NORAD_CAT_ID": 62754,
    "ELEMENT_SET_NO": 999,
    "REV_AT_EPOCH": 4502,
    "BSTAR": 0.0019403,
    "MEAN_MOTION_DOT": 0.0005358,
    "MEAN_MOTION_DDOT": 0.0,
    "TLE_LINE1": "1 62754U 25014V   25314.43568102  .00053580  00000+0  19403-2 0  9999",
    "TLE_LINE2": "2 62754  43.0007 107.4750 0002459 283.1582  76.8995 15.27614872 45021",
    "COMMENT": "Grouped by shell and plane from TLE"
  }
]